start=new Date('2022-10-14T00:00:00.000Z').valueOf();
sats=[{"APOAPSIS":"349.936","RA_OF_ASC_NODE":"104.5059","CENTER_NAME":"EARTH","LAUNCH_DATE":"2022-09-11","NORAD_CAT_ID":"53777","TIME_SYSTEM":"UTC","MEAN_MOTION_DOT":"-0.00131187","MEAN_ELEMENT_THEORY":"SGP4","ARG_OF_PERICENTER":"100.6428","COUNTRY_CODE":"US","MEAN_MOTION_DDOT":"0.0000000000000","CLASSIFICATION_TYPE":"U","DECAY_DATE":null,"SEMIMAJOR_AXIS":"6727.647","PERIAPSIS":"349.087","SITE":"AFETR","EPHEMERIS_TYPE":"0","OBJECT_ID":"2022-111E","FILE":"3609636","REV_AT_EPOCH":"130","PERIOD":"91.528","MEAN_ANOMALY":"107.2533","INCLINATION":"53.2173","TLE_LINE2":"2 53777  53.2173 104.5059 0000631 100.6428 107.2533 15.73287066  1307","TLE_LINE1":"1 53777U 22111E   22286.91667824 -.00131187  00000-0 -94148-3 0  9991","OBJECT_TYPE":"PAYLOAD","ECCENTRICITY":"0.00006310","ELEMENT_SET_NO":"999","REF_FRAME":"TEME","GP_ID":"215029701","RCS_SIZE":"LARGE","MEAN_MOTION":"15.73287066","EPOCH":"2022-10-13T22:00:00.999936","OBJECT_NAME":"STARLINK-4664","BSTAR":"-0.00094148000000"},{"ECCENTRICITY":"0.00014560","ELEMENT_SET_NO":"999","GP_ID":"215030289","REF_FRAME":"TEME","MEAN_MOTION":"15.73319767","RCS_SIZE":"LARGE","BSTAR":"-0.00493140000000","OBJECT_NAME":"STARLINK-4709","EPOCH":"2022-10-13T22:00:00.999936","INCLINATION":"53.2176","TLE_LINE2":"2 53778  53.2176 104.5074 0001456 116.2866  89.8496 15.73319767  1300","PERIOD":"91.526","MEAN_ANOMALY":"89.8496","TLE_LINE1":"1 53778U 22111F   22286.91667824 -.00645383  00000-0 -49314-2 0  9994","OBJECT_TYPE":"PAYLOAD","COUNTRY_CODE":"US","ARG_OF_PERICENTER":"116.2866","CLASSIFICATION_TYPE":"U","DECAY_DATE":null,"MEAN_MOTION_DDOT":"0.0000000000000","SITE":"AFETR","SEMIMAJOR_AXIS":"6727.554","PERIAPSIS":"348.439","REV_AT_EPOCH":"130","FILE":"3609636","OBJECT_ID":"2022-111F","EPHEMERIS_TYPE":"0","APOAPSIS":"350.398","CENTER_NAME":"EARTH","LAUNCH_DATE":"2022-09-11","RA_OF_ASC_NODE":"104.5074","MEAN_ELEMENT_THEORY":"SGP4","MEAN_MOTION_DOT":"-0.00645383","TIME_SYSTEM":"UTC","NORAD_CAT_ID":"53778"},{"LAUNCH_DATE":"2022-09-11","CENTER_NAME":"EARTH","RA_OF_ASC_NODE":"104.5054","MEAN_ELEMENT_THEORY":"SGP4","MEAN_MOTION_DOT":"0.00005260","TIME_SYSTEM":"UTC","NORAD_CAT_ID":"53779","APOAPSIS":"350.564","SITE":"AFETR","PERIAPSIS":"348.948","SEMIMAJOR_AXIS":"6727.891","REV_AT_EPOCH":"130","FILE":"3609636","OBJECT_ID":"2022-111G","EPHEMERIS_TYPE":"0","COUNTRY_CODE":"US","ARG_OF_PERICENTER":"99.7251","DECAY_DATE":null,"CLASSIFICATION_TYPE":"U","MEAN_MOTION_DDOT":"0.0000000000000","TLE_LINE1":"1 53779U 22111G   22286.91667824  .00005260  00000-0  41867-4 0  9994","OBJECT_TYPE":"PAYLOAD","TLE_LINE2":"2 53779  53.2175 104.5054 0001201  99.7251 108.8078 15.73201372  1309","INCLINATION":"53.2175","MEAN_ANOMALY":"108.8078","PERIOD":"91.533","MEAN_MOTION":"15.73201372","RCS_SIZE":"LARGE","BSTAR":"0.00004186700000","OBJECT_NAME":"STARLINK-4706","EPOCH":"2022-10-13T22:00:00.999936","ELEMENT_SET_NO":"999","ECCENTRICITY":"0.00012010","GP_ID":"215029869","REF_FRAME":"TEME"},{"REF_FRAME":"TEME","GP_ID":"215030190","ECCENTRICITY":"0.00010720","ELEMENT_SET_NO":"999","EPOCH":"2022-10-13T22:00:00.999936","BSTAR":"-0.00045918000000","OBJECT_NAME":"STARLINK-4678","MEAN_MOTION":"15.73244762","RCS_SIZE":"LARGE","MEAN_ANOMALY":"84.2004","PERIOD":"91.531","INCLINATION":"53.2172","TLE_LINE2":"2 53780  53.2172 104.5072 0001072 123.1198  84.2004 15.73244762  1302","OBJECT_TYPE":"PAYLOAD","TLE_LINE1":"1 53780U 22111H   22286.91667824 -.00064690  00000-0 -45918-3 0  9990","MEAN_MOTION_DDOT":"0.0000000000000","CLASSIFICATION_TYPE":"U","DECAY_DATE":null,"ARG_OF_PERICENTER":"123.1198","COUNTRY_CODE":"US","OBJECT_ID":"2022-111H","EPHEMERIS_TYPE":"0","FILE":"3609636","REV_AT_EPOCH":"130","PERIAPSIS":"348.911","SEMIMAJOR_AXIS":"6727.768","SITE":"AFETR","APOAPSIS":"350.354","MEAN_MOTION_DOT":"-0.00064690","NORAD_CAT_ID":"53780","TIME_SYSTEM":"UTC","MEAN_ELEMENT_THEORY":"SGP4","RA_OF_ASC_NODE":"104.5072","LAUNCH_DATE":"2022-09-11","CENTER_NAME":"EARTH"},{"LAUNCH_DATE":"2022-09-11","CENTER_NAME":"EARTH","RA_OF_ASC_NODE":"104.5015","MEAN_ELEMENT_THEORY":"SGP4","MEAN_MOTION_DOT":"-0.00014025","TIME_SYSTEM":"UTC","NORAD_CAT_ID":"53781","APOAPSIS":"350.543","SITE":"AFETR","SEMIMAJOR_AXIS":"6727.858","PERIAPSIS":"348.904","REV_AT_EPOCH":"130","FILE":"3609636","OBJECT_ID":"2022-111J","EPHEMERIS_TYPE":"0","COUNTRY_CODE":"US","ARG_OF_PERICENTER":"126.5859","DECAY_DATE":null,"CLASSIFICATION_TYPE":"U","MEAN_MOTION_DDOT":"0.0000000000000","TLE_LINE1":"1 53781U 22111J   22286.91667824 -.00014025  00000-0 -95624-4 0  9998","OBJECT_TYPE":"PAYLOAD","INCLINATION":"53.2173","TLE_LINE2":"2 53781  53.2173 104.5015 0001218 126.5859  83.7304 15.73212888  1305","PERIOD":"91.532","MEAN_ANOMALY":"83.7304","MEAN_MOTION":"15.73212888","RCS_SIZE":"LARGE","BSTAR":"-0.00009562400000","OBJECT_NAME":"STARLINK-4462","EPOCH":"2022-10-13T22:00:00.999936","ECCENTRICITY":"0.00012180","ELEMENT_SET_NO":"999","GP_ID":"215029284","REF_FRAME":"TEME"},{"RCS_SIZE":"LARGE","MEAN_MOTION":"15.73159163","EPOCH":"2022-10-13T22:00:00.999936","OBJECT_NAME":"STARLINK-4679","BSTAR":"0.00053656000000","ECCENTRICITY":"0.00010030","ELEMENT_SET_NO":"999","REF_FRAME":"TEME","GP_ID":"215030038","OBJECT_TYPE":"PAYLOAD","TLE_LINE1":"1 53782U 22111K   22286.91667824  .00075227  00000-0  53656-3 0  9996","PERIOD":"91.536","MEAN_ANOMALY":"79.4236","TLE_LINE2":"2 53782  53.2173 104.5036 0001003 129.7250  79.4236 15.73159163  1303","INCLINATION":"53.2173","SEMIMAJOR_AXIS":"6728.012","PERIAPSIS":"349.202","SITE":"AFETR","OBJECT_ID":"2022-111K","EPHEMERIS_TYPE":"0","FILE":"3609636","REV_AT_EPOCH":"130","ARG_OF_PERICENTER":"129.7250","COUNTRY_CODE":"US","MEAN_MOTION_DDOT":"0.0000000000000","DECAY_DATE":null,"CLASSIFICATION_TYPE":"U","RA_OF_ASC_NODE":"104.5036","CENTER_NAME":"EARTH","LAUNCH_DATE":"2022-09-11","TIME_SYSTEM":"UTC","NORAD_CAT_ID":"53782","MEAN_MOTION_DOT":"0.00075227","MEAN_ELEMENT_THEORY":"SGP4","APOAPSIS":"350.551"},{"REV_AT_EPOCH":"130","FILE":"3609636","OBJECT_ID":"2022-111L","EPHEMERIS_TYPE":"0","SITE":"AFETR","SEMIMAJOR_AXIS":"6727.891","PERIAPSIS":"348.781","CLASSIFICATION_TYPE":"U","DECAY_DATE":null,"MEAN_MOTION_DDOT":"0.0000000000000","COUNTRY_CODE":"US","ARG_OF_PERICENTER":"122.9196","MEAN_ELEMENT_THEORY":"SGP4","MEAN_MOTION_DOT":"0.00005193","NORAD_CAT_ID":"53783","TIME_SYSTEM":"UTC","LAUNCH_DATE":"2022-09-11","CENTER_NAME":"EARTH","RA_OF_ASC_NODE":"104.4994","APOAPSIS":"350.731","BSTAR":"0.00004139300000","OBJECT_NAME":"STARLINK-4536","EPOCH":"2022-10-13T22:00:00.999936","MEAN_MOTION":"15.73201403","RCS_SIZE":"LARGE","GP_ID":"215029452","REF_FRAME":"TEME","ECCENTRICITY":"0.00014490","ELEMENT_SET_NO":"999","OBJECT_TYPE":"PAYLOAD","TLE_LINE1":"1 53783U 22111L   22286.91667824  .00005193  00000-0  41393-4 0  9998","TLE_LINE2":"2 53783  53.2175 104.4994 0001449 122.9196  88.5939 15.73201403  1302","INCLINATION":"53.2175","MEAN_ANOMALY":"88.5939","PERIOD":"91.533"},{"SITE":"AFETR","SEMIMAJOR_AXIS":"6727.891","PERIAPSIS":"348.822","FILE":"3609636","REV_AT_EPOCH":"130","EPHEMERIS_TYPE":"0","OBJECT_ID":"2022-111M","COUNTRY_CODE":"US","ARG_OF_PERICENTER":"126.0044","CLASSIFICATION_TYPE":"U","DECAY_DATE":null,"MEAN_MOTION_DDOT":"0.0000000000000","LAUNCH_DATE":"2022-09-11","CENTER_NAME":"EARTH","RA_OF_ASC_NODE":"104.5027","MEAN_ELEMENT_THEORY":"SGP4","TIME_SYSTEM":"UTC","NORAD_CAT_ID":"53784","MEAN_MOTION_DOT":"0.00005231","APOAPSIS":"350.691","RCS_SIZE":"LARGE","MEAN_MOTION":"15.73201383","OBJECT_NAME":"STARLINK-4687","BSTAR":"0.00004166300000","EPOCH":"2022-10-13T22:00:00.999936","ELEMENT_SET_NO":"999","ECCENTRICITY":"0.00013890","GP_ID":"215030443","REF_FRAME":"TEME","TLE_LINE1":"1 53784U 22111M   22286.91667824  .00005231  00000-0  41663-4 0  9992","OBJECT_TYPE":"PAYLOAD","TLE_LINE2":"2 53784  53.2175 104.5027 0001389 126.0044  83.7208 15.73201383  1304","INCLINATION":"53.2175","MEAN_ANOMALY":"83.7208","PERIOD":"91.533"},{"OBJECT_TYPE":"PAYLOAD","TLE_LINE1":"1 53785U 22111N   22286.91667824  .00043498  00000-0  19441-3 0  9998","PERIOD":"90.923","MEAN_ANOMALY":"185.1639","TLE_LINE2":"2 53785  53.2029 102.3310 0008025 346.9086 185.1639 15.83762256  1304","INCLINATION":"53.2029","EPOCH":"2022-10-13T22:00:00.999936","OBJECT_NAME":"STARLINK-4638","BSTAR":"0.00019441000000","RCS_SIZE":"LARGE","MEAN_MOTION":"15.83762256","REF_FRAME":"TEME","GP_ID":"215029702","ECCENTRICITY":"0.00080250","ELEMENT_SET_NO":"999","TIME_SYSTEM":"UTC","NORAD_CAT_ID":"53785","MEAN_MOTION_DOT":"0.00043498","MEAN_ELEMENT_THEORY":"SGP4","RA_OF_ASC_NODE":"102.3310","LAUNCH_DATE":"2022-09-11","CENTER_NAME":"EARTH","APOAPSIS":"325.189","OBJECT_ID":"2022-111N","EPHEMERIS_TYPE":"0","REV_AT_EPOCH":"130","FILE":"3609636","SEMIMAJOR_AXIS":"6697.949","PERIAPSIS":"314.439","SITE":"AFETR","MEAN_MOTION_DDOT":"0.0000000000000","DECAY_DATE":null,"CLASSIFICATION_TYPE":"U","ARG_OF_PERICENTER":"346.9086","COUNTRY_CODE":"US"},{"APOAPSIS":"350.508","MEAN_MOTION_DOT":"-0.00025084","NORAD_CAT_ID":"53786","TIME_SYSTEM":"UTC","MEAN_ELEMENT_THEORY":"SGP4","RA_OF_ASC_NODE":"104.4998","LAUNCH_DATE":"2022-09-11","CENTER_NAME":"EARTH","MEAN_MOTION_DDOT":"0.0000000000000","DECAY_DATE":null,"CLASSIFICATION_TYPE":"U","ARG_OF_PERICENTER":"115.0548","COUNTRY_CODE":"US","OBJECT_ID":"2022-111P","EPHEMERIS_TYPE":"0","REV_AT_EPOCH":"130","FILE":"3609636","SEMIMAJOR_AXIS":"6727.839","PERIAPSIS":"348.900","SITE":"AFETR","PERIOD":"91.532","MEAN_ANOMALY":"95.8545","INCLINATION":"53.2174","TLE_LINE2":"2 53786  53.2174 104.4998 0001195 115.0548  95.8545 15.73219774  1304","TLE_LINE1":"1 53786U 22111P   22286.91667824 -.00025084  00000-0 -17469-3 0  9990","OBJECT_TYPE":"PAYLOAD","REF_FRAME":"TEME","GP_ID":"215030290","ELEMENT_SET_NO":"999","ECCENTRICITY":"0.00011950","EPOCH":"2022-10-13T22:00:00.999936","BSTAR":"-0.00017469000000","OBJECT_NAME":"STARLINK-4631","MEAN_MOTION":"15.73219774","RCS_SIZE":"LARGE"}];
